2 56121  43.0052   3.9603 0001300 292.8274  67.2431 15.02514329 27161
STARLINK-6094           
1 56122U 23046AF  23263.35676131 -.00002164  00000+0 -14524-3 0  9992
2 56122  43.0022  16.0596 0000495 287.3271  72.7517 15.02527362 27027
STARLINK-6115           
1 56123U 23046AH  23263.34605415 -.00002665  00000+0 -18237-3 0  9990
2 56123  43.0058   3.8637 0001189 290.5012  69.5703 15.02514209 27169
STARLINK-6126           
1 56124U 23046AJ  23263.36047642 -.00001142  00000+0 -69473-4 0  9993
2 56124  43.0049   3.9735 0001076 254.1868 105.8856 15.02528539 27164
STARLINK-6119           
1 56125U 23046AK  23263.28290431 -.00001576  00000+0 -10166-3 0  9996
2 56125  43.0069   4.2510 0001444 268.3775  91.6902 15.02510563 27156
STARLINK-6124           
1 56126U 23046AL  23262.74550684  .00002205  00000+0  17816-3 0  9993
2 56126  43.0052   7.0971 0001265 267.7047  92.3650 15.02556552 27074
STARLINK-6104           
1 56127U 23046AM  23263.33493429 -.00002915  00000+0 -20085-3 0  9995
2 56127  43.0014   3.7779 0000576 245.2748 114.8034 15.02530825 27166
STARLINK-6122           
1 56128U 23046AN  23263.35160549 -.00002785  00000+0 -19131-3 0  9997
2 56128  43.0045   3.9078 0000894 290.0955  69.9791 15.02514655 27169
STARLINK-6121           
1 56129U 23046AP  23263.18586512  .00001102  00000+0  71298-4 0  9994
2 56129  42.9976 315.8700 0000387 167.5446 192.5410 15.14323102 27707
STARLINK-6117           
1 56130U 23046AQ  23263.27401454 -.00001775  00000+0 -11642-3 0  9991
2 56130  43.0017   4.1828 0000182 335.1769  24.9065 15.02525302 27156
STARLINK-6120           
1 56131U 23046AR  23263.32606973 -.00001818  00000+0 -11955-3 0  9996
2 56131  43.0037   3.7134 0001044 274.9028  85.1695 15.02524094 27166
STARLINK-6071           
1 56132U 23046AS  23263.33716938  .00000508  00000+0  52658-4 0  9990
2 56132  43.0012   3.7952 0000514 240.2660 119.8131 15.02524296 27161
STARLINK-5566           
1 56133U 23046AT  23263.32827997  .00001160  00000+0  10094-3 0  9990
2 56133  42.9973   3.7280 0000651  26.7004 333.3872 15.02531270 27166
STARLINK-5564           
1 56134U 23046AU  23263.33159591 -.00007777  00000+0 -56099-3 0  9997
2 56134  43.0031   3.7535 0001121 270.1386  89.9328 15.02554151 27161
STARLINK-5563           
1 56135U 23046AV  23263.35457912 -.00002903  00000+0 -19999-3 0  9992
2 56135  43.0039 324.8564 0001363 278.1510  81.9178 15.02526586 27610
STARLINK-5489           
1 56136U 23046AW  23263.32939920 -.00001988  00000+0 -13220-3 0  9997
2 56136  43.0056   3.7362 0001380 263.1249  96.9436 15.02519812 27168
STARLINK-5090           
1 56137U 23046AX  23263.30831760 -.00002763  00000+0 -18969-3 0  9996
2 56137  43.0037   3.5752 0000670 265.0489  95.0277 15.02514702 27163
STARLINK-4774           
1 56138U 23046AY  23263.38921114 -.00001655  00000+0 -10751-3 0  9998
2 56138  43.0052   3.3243 0001364 263.8649  96.2038 15.02526740 27173
STARLINK-5378           
1 56139U 23046AZ  23263.31385737 -.00000819  00000+0 -45556-4 0  9990
2 56139  43.0013   3.6107 0000699 219.9317 140.1474 15.02525599 27160
STARLINK-5375           
1 56140U 23046BA  23263.32051875 -.00001137  00000+0 -69099-4 0  9998
2 56140  43.0036   3.6695 0001240 284.3327  75.7377 15.02523621 27168
STARLINK-5377           
1 56141U 23046BB  23263.37257493 -.00001980  00000+0 -13164-3 0  9995
2 56141  43.0054   3.1980 0001276 292.5787  67.4920 15.02510696 27172
STARLINK-5376           
1 56142U 23046BC  23263.31717878 -.00003701  00000+0 -25909-3 0  9991
2 56142  43.0034   3.6442 0001453 256.5965 103.4716 15.02526359 27160
STARLINK-5016           
1 56143U 23046BD  23263.36591043 -.00002005  00000+0 -13345-3 0  9998
2 56143  43.0059   3.1474 0001296 272.1938  87.8756 15.02519405 27171
STARLINK-5374           
1 56144U 23046BE  23263.37811990 -.00002589  00000+0 -17670-3 0  9998
2 56144  43.0057   3.2396 0001602 251.2886 108.7783 15.02520747 27179
STARLINK-5370           
1 56145U 23046BF  23263.35124988 -.00003215  00000+0 -22305-3 0  9999
2 56145  43.0049 324.8266 0001332 262.6939  97.3752 15.02529332 27611
STARLINK-5111           
1 56146U 23046BG  23263.30275892 -.00001457  00000+0 -92830-4 0  9993
2 56146  43.0028   3.5311 0000657 270.9322  89.1445 15.02525680 27168
STARLINK-5140           
1 56147U 23046BH  23263.34570108 -.00002277  00000+0 -15360-3 0  9999
2 56147  43.0027 324.7782 0000770 260.1241  99.9514 15.02524249 27611
STARLINK-5089           
1 56148U 23046BJ  23263.21607025 -.00001594  00000+0 -10295-3 0  9998
2 56148  43.0016 325.5291 0001017 269.2940  90.7786 15.02526826 27595
STARLINK-30107          
1 56287U 23056B   23263.43452236 -.00001299  00000+0 -83050-4 0  9991
2 56287  42.9995  67.2682 0000509 249.9097 110.1691 15.01719380 23855
STARLINK-30106          
1 56288U 23056C   23263.29473034 -.00002543  00000+0 -17331-3 0  9996
2 56288  42.9986  67.9563 0000626 286.0493  74.0280 15.02530295 23830
STARLINK-30095          
1 56289U 23056D   23263.26306203  .00000003  00000+0  15078-4 0  9991
2 56289  43.0020  42.4220 0002189 288.1820  71.8784 15.03346086 24124
STARLINK-30103          
1 56290U 23056E   23262.89252010  .00009983  00000+0  75242-3 0  9991
2 56290  43.0013  70.0972 0001306 271.5991  88.4701 15.02567600 23773
STARLINK-30113          
1 56291U 23056F   23262.76622140  .00006259  00000+0  47766-3 0  9996
2 56291  43.0008  70.8605 0001624 282.5184  77.5477 15.02564058 23760
STARLINK-30098          
1 56292U 23056G   23262.95566800  .00017025  00000+0  12711-2 0  9992
2 56292  43.0019  69.6995 0001265 271.2822  88.7875 15.02573200 23783
STARLINK-30090          
1 56293U 23056H   23263.43267291 -.00001896  00000+0 -12820-3 0  9992
2 56293  43.0014  67.2552 0001049 278.4879  81.5845 15.01719572 23852
STARLINK-30049          
1 56294U 23056J   23262.91667824 -.00004559  00000+0 -32298-3 0  9991
2 56294  43.0016  70.5783 0001795 287.1591 275.2978 15.02495138 23774
STARLINK-30083          
1 56295U 23056K   23263.40498965 -.00000426  00000+0 -16433-4 0  9998
2 56295  43.0020  41.7497 0002934 281.4970  78.5542 15.02527770 24147
STARLINK-30089          
1 56296U 23056L   23263.33876623 -.00000778  00000+0 -42553-4 0  9994
2 56296  43.0016  29.0759 0002163 288.2126  71.8481 15.02523684 24288
STARLINK-30086          
1 56297U 23056M   23263.25001157  .00017169  00000+0  12844-2 0  9996
2 56297  43.0025  68.5002 0001469 282.5342  33.1595 15.02492926 23823
STARLINK-30109          
1 56298U 23056N   23262.86599142  .00002023  00000+0  16474-3 0  9996
2 56298  43.0017  70.6785 0001015 261.6892  98.3836 15.02544171 23766
STARLINK-30108          
1 56299U 23056P   23262.70011515  .00013208  00000+0  99029-3 0  9997
2 56299  43.0027  59.0165 0001384 265.3230  94.7454 15.02562013 23881
STARLINK-30104          
1 56300U 23056Q   23262.88586273  .00015065  00000+0  11268-2 0  9998
2 56300  43.0008  70.0471 0001233 266.2100  93.8601 15.02573459 23773
STARLINK-30101          
1 56301U 23056R   23262.89721705  .00015349  00000+0  11727-2 0  9996
2 56301  43.0015  70.1177 0001493 274.0625  86.0047 15.01755146 23786
STARLINK-30111          
1 56302U 23056S   23262.91667824  .00000060  00000+0  19515-4 0  9990
2 56302  43.0022  70.1007 0001452 264.7990 136.0138 15.02506489 23785
STARLINK-30097          
1 56303U 23056T   23262.85391800  .00042137  00000+0  22679-2 0  9996
2 56303  42.9999  63.8099 0009731 299.9639  60.0241 15.14136217 23844
STARLINK-30099          
1 56304U 23056U   23263.43542628 -.00005465  00000+0 -39864-3 0  9998
2 56304  43.0009  67.2023 0001694 251.1887 108.8771 15.01701221 23858
STARLINK-30094          
1 56305U 23056V   23262.94230761  .00018254  00000+0  13909-2 0  9995
2 56305  43.0028  68.6694 0001457 268.5395  91.5280 15.01762114 23796
STARLINK-30112          
1 56306U 23056W   23262.91248627  .00030538  00000+0  22631-2 0  9994
2 56306  43.0028  70.1622 0001789 274.0981  85.9656 15.02581289 23772
STARLINK-6038           
1 56317U 23058A   23262.00401148  .00000416  00000+0  37005-4 0  9992
2 56317  97.6543 261.6736 0004729  55.3528 304.8142 15.01260591 22207
STARLINK-5954           
1 56318U 23058B   23262.00030340  .00000570  00000+0  48981-4 0  9991
2 56318  97.6537 261.6771 0003603  42.3345 317.8156 15.01263716 22204
STARLINK-6039           
1 56319U 23058C   23262.73162821  .00000472  00000+0  41342-4 0  9997
2 56319  97.6540 262.4018 0004051  37.3656 322.7849 15.01262478 22319
STARLINK-5988           
1 56320U 23058D   23261.99475033  .00000023  00000+0  63772-5 0  9992
2 56320  97.6541 261.6806 0002151  92.2307 267.9164 15.01258897 22208
STARLINK-5876           
1 56321U 23058E   23262.83334491  .00014709  00000+0  11476-2 0  9996
2 56321  97.6539 262.5142 0002700  42.1907 177.3660 15.01250978 22329
STARLINK-6033           
1 56322U 23058F   23262.26876659  .00000630  00000+0  53667-4 0  9999
2 56322  97.6543 261.9379 0004307  47.6881 312.4707 15.01261104 22244
STARLINK-6035           
1 56323U 23058G   23262.99292371 -.00000585  00000+0 -40952-4 0  9997
2 56323  97.6538 262.6702 0002146  62.2417 297.9024 15.01257696 22356
STARLINK-6034           
1 56324U 23058H   23262.26320761  .00000735  00000+0  61817-4 0  9991
2 56324  97.6537 261.9441 0003377  39.2927 320.8541 15.01264641 22241
STARLINK-5981           
1 56325U 23058J   23262.72051306  .00000399  00000+0  35647-4 0  9997
2 56325  97.6529 262.4079 0001398  71.7930 288.3447 15.01261344 22310
STARLINK-5980           
1 56326U 23058K   23261.99684429  .00000787  00000+0  65844-4 0  9997
2 56326  97.6540 261.6770 0002587  88.5989 271.5531 15.01263558 22209
STARLINK-5997           
1 56327U 23058L   23261.98363680  .00000016  00000+0  58569-5 0  9992
2 56327  97.6537 261.6864 0001352  92.3030 267.8349 15.01259009 22200
STARLINK-5992           
1 56328U 23058M   23262.92232187 -.00000030  00000+0  22195-5 0  9998
2 56328  97.6525 262.6060 0001515  56.9883 303.1486 15.01262569 22346
